ONEWEB-0216             
1 48801U 21045AL  23300.46824848  .00007740  00000+0  20475-1 0  9991
2 48801  87.8953  91.0828 0001709  86.4206 273.7120 13.15656007118718
ONEWEB-0239             
1 48802U 21045AM  23300.47263769  .00005748  00000+0  15221-1 0  9991
2 48802  87.8963  91.0368 0001135  66.0267 294.0983 13.15570501117630
ONEWEB-0249             
1 48967U 21060A   23300.56263898 -.00002775  00000+0 -72926-2 0  9998
2 48967  87.9068  60.5552 0001897  93.5937 266.5411 13.16611628112811
ONEWEB-0250             
1 48968U 21060B   23300.56686002  .00000100  00000+0  22860-3 0  9996
2 48968  87.9068  60.5394 0001354  92.9991 267.1295 13.16596704112798
ONEWEB-0252             
1 48970U 21060D   23300.59432195 -.00000062  00000+0 -19617-3 0  9999
2 48970  87.9067  60.5415 0001786  94.9776 265.1558 13.16594294112866
ONEWEB-0253             
1 48971U 21060E   23300.58374725  .00000027  00000+0  36908-4 0  9995
2 48971  87.8996  60.5970 0001586  85.7873 274.3439 13.16593900112792
ONEWEB-0254             
1 48972U 21060F   23300.59220721 -.00001382  00000+0 -36496-2 0  9990
2 48972  87.9069  60.5318 0001497  86.3585 273.7717 13.16603342112793
ONEWEB-0255             
1 48973U 21060G   23300.40221741  .00000122  00000+0  28681-3 0  9991
2 48973  87.9071  60.6052 0001607  99.4091 260.7221 13.16594667112844
